<?xml version="1.0" encoding="UTF-8"?>
<ndm xmlns:xsi="http://www.w3.org/2001/XMLSchema-instance" xsi:noNamespaceSchemaLocation="https://sanaregistry.org/r/ndmxml_unqualified/ndmxml-2.0.0-master-2.0.xsd">
<omm id="CCSDS_OMM_VERS" version="2.0">
<header><CREATION_DATE/><ORIGINATOR/></header><body><segment><metadata><OBJECT_NAME>ONEWEB-0267</OBJECT_NAME><OBJECT_ID>2021-060U</OBJECT_ID><CENTER_NAME>EARTH</CENTER_NAME><REF_FRAME>TEME</REF_FRAME><TIME_SYSTEM>UTC</TIME_SYSTEM><MEAN_ELEMENT_THEORY>SGP4</MEAN_ELEMENT_THEORY></metadata><data><meanElements><EPOCH>2025-10-14T16:05:37.340448</EPOCH><MEAN_MOTION>13.16593972</MEAN_MOTION><ECCENTRICITY>.00017267</ECCENTRICITY><INCLINATION>87.8970</INCLINATION><RA_OF_ASC_NODE>277.6882</RA_OF_ASC_NODE><ARG_OF_PERICENTER>95.9825</ARG_OF_PERICENTER><MEAN_ANOMALY>264.1503</MEAN_ANOMALY></meanElements><tleParameters><EPHEMERIS_TYPE>0</EPHEMERIS_TYPE><CLASSIFICATION_TYPE>U</CLASSIFICATION_TYPE><NORAD_CAT_ID>48985</NORAD_CAT_ID><ELEMENT_SET_NO>999</ELEMENT_SET_NO><REV_AT_EPOCH>20728</REV_AT_EPOCH><BSTAR>.12062889E-3</BSTAR><MEAN_MOTION_DOT>.59E-6</MEAN_MOTION_DOT><MEAN_MOTION_DDOT>0</MEAN_MOTION_DDOT></tleParameters></data></segment></body></omm>
<omm id="CCSDS_OMM_VERS" version="2.0">
<header><CREATION_DATE/><ORIGINATOR/></header><body><segment><metadata><OBJECT_NAME>ONEWEB-0268</OBJECT_NAME><OBJECT_ID>2021-060V</OBJECT_ID><CENTER_NAME>EARTH</CENTER_NAME><REF_FRAME>TEME</REF_FRAME><TIME_SYSTEM>UTC</TIME_SYSTEM><MEAN_ELEMENT_THEORY>SGP4</MEAN_ELEMENT_THEORY></metadata><data><meanElements><EPOCH>2025-10-14T22:37:47.232192</EPOCH><MEAN_MOTION>13.16593212</MEAN_MOTION><ECCENTRICITY>.00018018</ECCENTRICITY><INCLINATION>87.8972</INCLINATION><RA_OF_ASC_NODE>277.6403</RA_OF_ASC_NODE><ARG_OF_PERICENTER>88.2443</ARG_OF_PERICENTER><MEAN_ANOMALY>271.8894</MEAN_ANOMALY></meanElements><tleParameters><EPHEMERIS_TYPE>0</EPHEMERIS_TYPE><CLASSIFICATION_TYPE>U</CLASSIFICATION_TYPE><NORAD_CAT_ID>48986</NORAD_CAT_ID><ELEMENT_SET_NO>999</ELEMENT_SET_NO><REV_AT_EPOCH>20758</REV_AT_EPOCH><BSTAR>.35232803E-4</BSTAR><MEAN_MOTION_DOT>.26E-6</MEAN_MOTION_DOT><MEAN_MOTION_DDOT>0</MEAN_MOTION_DDOT></tleParameters></data></segment></body></omm>
<omm id="CCSDS_OMM_VERS" version="2.0">
<header><CREATION_DATE/><ORIGINATOR/></header><body><segment><metadata><OBJECT_NAME>ONEWEB-0269</OBJECT_NAME><OBJECT_ID>2021-060W</OBJECT_ID><CENTER_NAME>EARTH</CENTER_NAME><REF_FRAME>TEME</REF_FRAME><TIME_SYSTEM>UTC</TIME_SYSTEM><MEAN_ELEMENT_THEORY>SGP4</MEAN_ELEMENT_THEORY></metadata><data><meanElements><EPOCH>2025-10-14T22:10:25.840416</EPOCH><MEAN_MOTION>13.16596656</MEAN_MOTION><ECCENTRICITY>.00018088</ECCENTRICITY><INCLINATION>87.8966</INCLINATION><RA_OF_ASC_NODE>277.6719</RA_OF_ASC_NODE><ARG_OF_PERICENTER>82.0297</ARG_OF_PERICENTER><MEAN_ANOMALY>278.1040</MEAN_ANOMALY></meanElements><tleParameters><EPHEMERIS_TYPE>0</EPHEMERIS_TYPE><CLASSIFICATION_TYPE>U</CLASSIFICATION_TYPE><NORAD_CAT_ID>48987</NORAD_CAT_ID><ELEMENT_SET_NO>999</ELEMENT_SET_NO><REV_AT_EPOCH>20735</REV_AT_EPOCH><BSTAR>-.65218562E-4</BSTAR><MEAN_MOTION_DOT>-.12E-6</MEAN_MOTION_DOT><MEAN_MOTION_DDOT>0</MEAN_MOTION_DDOT></tleParameters></data></segment></body></omm>
<omm id="CCSDS_OMM_VERS" version="2.0">
<header><CREATION_DATE/><ORIGINATOR/></header><body><segment><metadata><OBJECT_NAME>ONEWEB-0270</OBJECT_NAME><OBJECT_ID>2021-060X</OBJECT_ID><CENTER_NAME>EARTH</CENTER_NAME><REF_FRAME>TEME</REF_FRAME><TIME_SYSTEM>UTC</TIME_SYSTEM><MEAN_ELEMENT_THEORY>SGP4</MEAN_ELEMENT_THEORY></metadata><data><meanElements><EPOCH>2025-10-14T17:07:11.462304</EPOCH><MEAN_MOTION>13.16596691</MEAN_MOTION><ECCENTRICITY>.00019784</ECCENTRICITY><INCLINATION>87.8972</INCLINATION><RA_OF_ASC_NODE>277.6880</RA_OF_ASC_NODE><ARG_OF_PERICENTER>101.4730</ARG_OF_PERICENTER><MEAN_ANOMALY>258.6623</MEAN_ANOMALY></meanElements><tleParameters><EPHEMERIS_TYPE>0</EPHEMERIS_TYPE><CLASSIFICATION_TYPE>U</CLASSIFICATION_TYPE><NORAD_CAT_ID>48988</NORAD_CAT_ID><ELEMENT_SET_NO>999</ELEMENT_SET_NO><REV_AT_EPOCH>20736</REV_AT_EPOCH><BSTAR>-.16863841E-4</BSTAR><MEAN_MOTION_DOT>.6E-7</MEAN_MOTION_DOT><MEAN_MOTION_DDOT>0</MEAN_MOTION_DDOT></tleParameters></data></segment></body></omm>
<omm id="CCSDS_OMM_VERS" version="2.0">
<header><CREATION_DATE/><ORIGINATOR/></header><body><segment><metadata><OBJECT_NAME>ONEWEB-0271</OBJECT_NAME><OBJECT_ID>2021-060Y</OBJECT_ID><CENTER_NAME>EARTH</CENTER_NAME><REF_FRAME>TEME</REF_FRAME><TIME_SYSTEM>UTC</TIME_SYSTEM><MEAN_ELEMENT_THEORY>SGP4</MEAN_ELEMENT_THEORY></metadata><data><meanElements><EPOCH>2025-10-14T22:17:16.263744</EPOCH><MEAN_MOTION>13.16593759</MEAN_MOTION><ECCENTRICITY>.00017623</ECCENTRICITY><INCLINATION>87.8983</INCLINATION><RA_OF_ASC_NODE>277.6293</RA_OF_ASC_NODE><ARG_OF_PERICENTER>96.8045</ARG_OF_PERICENTER><MEAN_ANOMALY>263.3286</MEAN_ANOMALY></meanElements><tleParameters><EPHEMERIS_TYPE>0</EPHEMERIS_TYPE><CLASSIFICATION_TYPE>U</CLASSIFICATION_TYPE><NORAD_CAT_ID>48989</NORAD_CAT_ID><ELEMENT_SET_NO>999</ELEMENT_SET_NO><REV_AT_EPOCH>20739</REV_AT_EPOCH><BSTAR>-.1684854E-3</BSTAR><MEAN_MOTION_DOT>-.52E-6</MEAN_MOTION_DOT><MEAN_MOTION_DDOT>0</MEAN_MOTION_DDOT></tleParameters></data></segment></body></omm>
<omm id="CCSDS_OMM_VERS" version="2.0">
<header><CREATION_DATE/><ORIGINATOR/></header><body><segment><metadata><OBJECT_NAME>ONEWEB-0272</OBJECT_NAME><OBJECT_ID>2021-060Z</OBJECT_ID><CENTER_NAME>EARTH</CENTER_NAME><REF_FRAME>TEME</REF_FRAME><TIME_SYSTEM>UTC</TIME_SYSTEM><MEAN_ELEMENT_THEORY>SGP4</MEAN_ELEMENT_THEORY></metadata><data><meanElements><EPOCH>2025-10-14T22:49:11.417376</EPOCH><MEAN_MOTION>13.16593522</MEAN_MOTION><ECCENTRICITY>.00016824</ECCENTRICITY><INCLINATION>87.8963</INCLINATION><RA_OF_ASC_NODE>277.6499</RA_OF_ASC_NODE><ARG_OF_PERICENTER>93.7982</ARG_OF_PERICENTER><MEAN_ANOMALY>266.3342</MEAN_ANOMALY></meanElements><tleParameters><EPHEMERIS_TYPE>0</EPHEMERIS_TYPE><CLASSIFICATION_TYPE>U</CLASSIFICATION_TYPE><NORAD_CAT_ID>48990</NORAD_CAT_ID><ELEMENT_SET_NO>999</ELEMENT_SET_NO><REV_AT_EPOCH>20734</REV_AT_EPOCH><BSTAR>.45038344E-3</BSTAR><MEAN_MOTION_DOT>.185E-5</MEAN_MOTION_DOT><MEAN_MOTION_DDOT>0</MEAN_MOTION_DDOT></tleParameters></data></segment></body></omm>
<omm id="CCSDS_OMM_VERS" version="2.0">
<header><CREATION_DATE/><ORIGINATOR/></header><body><segment><metadata><OBJECT_NAME>ONEWEB-0273</OBJECT_NAME><OBJECT_ID>2021-060AA</OBJECT_ID><CENTER_NAME>EARTH</CENTER_NAME><REF_FRAME>TEME</REF_FRAME><TIME_SYSTEM>UTC</TIME_SYSTEM><MEAN_ELEMENT_THEORY>SGP4</MEAN_ELEMENT_THEORY></metadata><data><meanElements><EPOCH>2025-10-14T16:03:20.323008</EPOCH><MEAN_MOTION>13.16597411</MEAN_MOTION><ECCENTRICITY>.00019252</ECCENTRICITY><INCLINATION>87.8976</INCLINATION><RA_OF_ASC_NODE>277.6965</RA_OF_ASC_NODE><ARG_OF_PERICENTER>93.9912</ARG_OF_PERICENTER><MEAN_ANOMALY>266.1439</MEAN_ANOMALY></meanElements><tleParameters><EPHEMERIS_TYPE>0</EPHEMERIS_TYPE><CLASSIFICATION_TYPE>U</CLASSIFICATION_TYPE><NORAD_CAT_ID>48991</NORAD_CAT_ID><ELEMENT_SET_NO>999</ELEMENT_SET_NO><REV_AT_EPOCH>20728</REV_AT_EPOCH><BSTAR>.22506421E-3</BSTAR><MEAN_MOTION_DOT>.99E-6</MEAN_MOTION_DOT><MEAN_MOTION_DDOT>0</MEAN_MOTION_DDOT></tleParameters></data></segment></body></omm>
<omm id="CCSDS_OMM_VERS" version="2.0">
<header><CREATION_DATE/><ORIGINATOR/></header><body><segment><metadata><OBJECT_NAME>ONEWEB-0274</OBJECT_NAME><OBJECT_ID>2021-060AB</OBJECT_ID><CENTER_NAME>EARTH</CENTER_NAME><REF_FRAME>TEME</REF_FRAME><TIME_SYSTEM>UTC</TIME_SYSTEM><MEAN_ELEMENT_THEORY>SGP4</MEAN_ELEMENT_THEORY></metadata><data><meanElements><EPOCH>2025-10-14T22:08:09.482208</EPOCH><MEAN_MOTION>13.16594409</MEAN_MOTION><ECCENTRICITY>.00014769</ECCENTRICITY><INCLINATION>87.8965</INCLINATION><RA_OF_ASC_NODE>277.6750</RA_OF_ASC_NODE><ARG_OF_PERICENTER>86.4058</ARG_OF_PERICENTER><MEAN_ANOMALY>273.7242</MEAN_ANOMALY></meanElements><tleParameters><EPHEMERIS_TYPE>0</EPHEMERIS_TYPE><CLASSIFICATION_TYPE>U</CLASSIFICATION_TYPE><NORAD_CAT_ID>48992</NORAD_CAT_ID><ELEMENT_SET_NO>999</ELEMENT_SET_NO><REV_AT_EPOCH>20735</REV_AT_EPOCH><BSTAR>-.15584098E-4</BSTAR><MEAN_MOTION_DOT>.7E-7</MEAN_MOTION_DOT><MEAN_MOTION_DDOT>0</MEAN_MOTION_DDOT></tleParameters></data></segment></body></omm>

</ndm>
