ONEWEB-0267             
1 48985U 21060U   25287.67057107  .00000059  00000+0  12063-3 0  9998
2 48985  87.8970 277.6882 0001726  95.9825 264.1503 13.16593972207285
ONEWEB-0268             
1 48986U 21060V   25287.94290778  .00000026  00000+0  35233-4 0  9991
2 48986  87.8972 277.6403 0001801  88.2443 271.8894 13.16593212207580
ONEWEB-0269             
1 48987U 21060W   25287.92391019 -.00000012  00000+0 -65219-4 0  9994
2 48987  87.8966 277.6719 0001808  82.0297 278.1040 13.16596656207353
ONEWEB-0270             
1 48988U 21060X   25287.71332711  .00000006  00000+0 -16864-4 0  9990
2 48988  87.8972 277.6880 0001978 101.4730 258.6623 13.16596691207366
ONEWEB-0271             
1 48989U 21060Y   25287.92866046 -.00000052  00000+0 -16849-3 0  9991
2 48989  87.8983 277.6293 0001762  96.8045 263.3286 13.16593759207397
ONEWEB-0272             
1 48990U 21060Z   25287.95082659  .00000185  00000+0  45038-3 0  9993
2 48990  87.8963 277.6499 0001682  93.7982 266.3342 13.16593522207341
ONEWEB-0273             
1 48991U 21060AA  25287.66898522  .00000099  00000+0  22506-3 0  9995
2 48991  87.8976 277.6965 0001925  93.9912 266.1439 13.16597411207288
ONEWEB-0274             
1 48992U 21060AB  25287.92233197  .00000007  00000+0 -15584-4 0  9995
2 48992  87.8965 277.6750 0001476  86.4058 273.7242 13.16594409207356
